MAROC-TUBSAT            
1 27004U 01056D   26190.00112368 -.00000018  00000+0  32459-4 0  9990
2 27004  99.8094   7.2728 0020636  87.3626  77.8199 13.70263321229179
METEOSAT-10 (MSG-3)     
1 38552U 12035B   26189.85600444  .00000003  00000+0  00000+0 0  9992
2 38552   4.7199  60.9088 0001193  18.9773 155.1539  1.00269845 51072
METEOR-M 2              
1 40069U 14037A   26189.96646262  .00000098  00000+0  64091-4 0  9991
2 40069  98.5130 164.9345 0005525 346.4764  13.6265 14.21468468622412
METEOSAT-11 (MSG-4)     
1 40732U 15034A   26189.78653126  .00000073  00000+0  00000+0 0  9991
2 40732   3.2540  70.9760 0002263 351.5341 156.6363  1.00269859  7430
METEOR-M2 2             
1 44387U 19038A   26189.95069159 -.00000049  00000+0 -13299-5 0  9990
2 44387  98.9161 177.5581 0001083  15.5468 344.5743 14.24371366364399
LUDI TANCE 1-01A (L-SA*)
1 51284U 22007A   26189.96266407  .00000416  00000+0  50703-4 0  9996
2 51284  97.8108 197.0732 0001601  90.2182 269.9218 14.88414565241712
LUDI TANCE 1-01B (L-SA*)
1 51822U 22018A   26189.99626080 -.00000008  00000+0  49528-5 0  9998
2 51822  97.8107 197.1042 0001632  90.6519 269.4884 14.88408223236954
METEOR-M2 3             
1 57166U 23091A   26189.95003097 -.00000031  00000+0  54268-5 0  9993
2 57166  98.6071 244.4818 0005124 104.2846 255.8903 14.24048564157616
LUDI TANCE-4 01A        
1 57624U 23120A   26189.01813208 -.00000151  00000+0  00000+0 0  9997
2 57624  15.0911 193.4584 0001670  26.4984 161.9389  1.00265090 10757
METEOR-M2 4             
1 59051U 24039A   26189.98944522 -.00000006  00000+0  17075-4 0  9997
2 59051  98.7021 149.0147 0008189 104.1617 256.0471 14.22431722122368
