{
 "generated_at": "2026-07-09T08:28:01Z",
 "sources": [
  {
   "name": "CelesTrak",
   "url": "https://celestrak.org/NORAD/elements/",
   "license": "frei verfügbar; Attribution. Ursprünglich USSPACECOM/Space-Track."
  },
  {
   "name": "GCAT (J. McDowell, planet4589.org)",
   "url": "https://planet4589.org/space/gcat/",
   "license": "CC-BY 4.0"
  }
 ],
 "satellites": [
  {
   "norad": 51284,
   "name": "LUDI TANCE 1-01A (L-SAR 01A)",
   "intl": "2022-007A",
   "group": "sar",
   "gcat": {
    "class": "C",
    "category": "IMG-R",
    "owner": "SAST",
    "state": "CN"
   },
   "omm": {
    "OBJECT_NAME": "LUDI TANCE 1-01A (L-SAR 01A)",
    "OBJECT_ID": "2022-007A",
    "EPOCH": "2026-07-08T23:06:14.175648",
    "MEAN_MOTION": 14.88414565,
    "ECCENTRICITY": 0.00016012,
    "INCLINATION": 97.8108,
    "RA_OF_ASC_NODE": 197.0732,
    "ARG_OF_PERICENTER": 90.2182,
    "MEAN_ANOMALY": 269.9218,
    "EPHEMERIS_TYPE": 0,
    "CLASSIFICATION_TYPE": "U",
    "NORAD_CAT_ID": 51284,
    "ELEMENT_SET_NO": 999,
    "REV_AT_EPOCH": 24171,
    "BSTAR": 0.000050702793,
    "MEAN_MOTION_DOT": 0.00000416,
    "MEAN_MOTION_DDOT": 0
   }
  },
  {
   "norad": 51822,
   "name": "LUDI TANCE 1-01B (L-SAR 01B)",
   "intl": "2022-018A",
   "group": "sar",
   "gcat": {
    "class": "C",
    "category": "IMG-R",
    "owner": "SAST",
    "state": "CN"
   },
   "omm": {
    "OBJECT_NAME": "LUDI TANCE 1-01B (L-SAR 01B)",
    "OBJECT_ID": "2022-018A",
    "EPOCH": "2026-07-08T23:54:36.933120",
    "MEAN_MOTION": 14.88408223,
    "ECCENTRICITY": 0.00016328,
    "INCLINATION": 97.8107,
    "RA_OF_ASC_NODE": 197.1042,
    "ARG_OF_PERICENTER": 90.6519,
    "MEAN_ANOMALY": 269.4884,
    "EPHEMERIS_TYPE": 0,
    "CLASSIFICATION_TYPE": "U",
    "NORAD_CAT_ID": 51822,
    "ELEMENT_SET_NO": 999,
    "REV_AT_EPOCH": 23695,
    "BSTAR": 0.000004952826,
    "MEAN_MOTION_DOT": -8e-8,
    "MEAN_MOTION_DDOT": 0
   }
  },
  {
   "norad": 57624,
   "name": "LUDI TANCE-4 01A",
   "intl": "2023-120A",
   "group": "sar",
   "gcat": {
    "class": "D",
    "category": "IMG-R",
    "owner": "CNSA",
    "state": "CN"
   },
   "omm": {
    "OBJECT_NAME": "LUDI TANCE-4 01A",
    "OBJECT_ID": "2023-120A",
    "EPOCH": "2026-07-08T00:26:06.611712",
    "MEAN_MOTION": 1.0026509,
    "ECCENTRICITY": 0.00016704,
    "INCLINATION": 15.0911,
    "RA_OF_ASC_NODE": 193.4584,
    "ARG_OF_PERICENTER": 26.4984,
    "MEAN_ANOMALY": 161.9389,
    "EPHEMERIS_TYPE": 0,
    "CLASSIFICATION_TYPE": "U",
    "NORAD_CAT_ID": 57624,
    "ELEMENT_SET_NO": 999,
    "REV_AT_EPOCH": 1075,
    "BSTAR": 0,
    "MEAN_MOTION_DOT": -0.00000151,
    "MEAN_MOTION_DDOT": 0
   }
  },
  {
   "norad": 27004,
   "name": "MAROC-TUBSAT",
   "intl": "2001-056D",
   "group": "resource",
   "gcat": {
    "class": null,
    "category": null,
    "owner": null,
    "state": null
   },
   "omm": {
    "OBJECT_NAME": "MAROC-TUBSAT",
    "OBJECT_ID": "2001-056D",
    "EPOCH": "2026-07-09T00:01:37.085952",
    "MEAN_MOTION": 13.70263321,
    "ECCENTRICITY": 0.0020636,
    "INCLINATION": 99.8094,
    "RA_OF_ASC_NODE": 7.2728,
    "ARG_OF_PERICENTER": 87.3626,
    "MEAN_ANOMALY": 77.8199,
    "EPHEMERIS_TYPE": 0,
    "CLASSIFICATION_TYPE": "U",
    "NORAD_CAT_ID": 27004,
    "ELEMENT_SET_NO": 999,
    "REV_AT_EPOCH": 22917,
    "BSTAR": 0.000032459065,
    "MEAN_MOTION_DOT": -1.8e-7,
    "MEAN_MOTION_DDOT": 0
   }
  },
  {
   "norad": 40069,
   "name": "METEOR-M 2",
   "intl": "2014-037A",
   "group": "weather",
   "gcat": {
    "class": "C",
    "category": "MET",
    "owner": "RGMS/VNIIEMI",
    "state": "RU"
   },
   "omm": {
    "OBJECT_NAME": "METEOR-M 2",
    "OBJECT_ID": "2014-037A",
    "EPOCH": "2026-07-08T23:11:42.370368",
    "MEAN_MOTION": 14.21468468,
    "ECCENTRICITY": 0.00055254,
    "INCLINATION": 98.513,
    "RA_OF_ASC_NODE": 164.9345,
    "ARG_OF_PERICENTER": 346.4764,
    "MEAN_ANOMALY": 13.6265,
    "EPHEMERIS_TYPE": 0,
    "CLASSIFICATION_TYPE": "U",
    "NORAD_CAT_ID": 40069,
    "ELEMENT_SET_NO": 999,
    "REV_AT_EPOCH": 62241,
    "BSTAR": 0.000064090637,
    "MEAN_MOTION_DOT": 9.8e-7,
    "MEAN_MOTION_DDOT": 0
   }
  },
  {
   "norad": 44387,
   "name": "METEOR-M2 2",
   "intl": "2019-038A",
   "group": "weather",
   "gcat": {
    "class": "C",
    "category": "MET",
    "owner": "RGMS/VNIIEMI",
    "state": "RU"
   },
   "omm": {
    "OBJECT_NAME": "METEOR-M2 2",
    "OBJECT_ID": "2019-038A",
    "EPOCH": "2026-07-08T22:48:59.753376",
    "MEAN_MOTION": 14.24371366,
    "ECCENTRICITY": 0.00010836,
    "INCLINATION": 98.9161,
    "RA_OF_ASC_NODE": 177.5581,
    "ARG_OF_PERICENTER": 15.5468,
    "MEAN_ANOMALY": 344.5743,
    "EPHEMERIS_TYPE": 0,
    "CLASSIFICATION_TYPE": "U",
    "NORAD_CAT_ID": 44387,
    "ELEMENT_SET_NO": 999,
    "REV_AT_EPOCH": 36439,
    "BSTAR": -0.000001329904,
    "MEAN_MOTION_DOT": -4.9e-7,
    "MEAN_MOTION_DDOT": 0
   }
  },
  {
   "norad": 57166,
   "name": "METEOR-M2 3",
   "intl": "2023-091A",
   "group": "weather",
   "gcat": {
    "class": "C",
    "category": "MET",
    "owner": "RGMS/VNIIEMI",
    "state": "RU"
   },
   "omm": {
    "OBJECT_NAME": "METEOR-M2 3",
    "OBJECT_ID": "2023-091A",
    "EPOCH": "2026-07-08T22:48:02.675808",
    "MEAN_MOTION": 14.24048564,
    "ECCENTRICITY": 0.00051242,
    "INCLINATION": 98.6071,
    "RA_OF_ASC_NODE": 244.4818,
    "ARG_OF_PERICENTER": 104.2846,
    "MEAN_ANOMALY": 255.8903,
    "EPHEMERIS_TYPE": 0,
    "CLASSIFICATION_TYPE": "U",
    "NORAD_CAT_ID": 57166,
    "ELEMENT_SET_NO": 999,
    "REV_AT_EPOCH": 15761,
    "BSTAR": 0.000005426768,
    "MEAN_MOTION_DOT": -3.1e-7,
    "MEAN_MOTION_DDOT": 0
   }
  },
  {
   "norad": 59051,
   "name": "METEOR-M2 4",
   "intl": "2024-039A",
   "group": "weather",
   "gcat": {
    "class": "C",
    "category": "MET",
    "owner": "RGMS/VNIIEMI",
    "state": "RU"
   },
   "omm": {
    "OBJECT_NAME": "METEOR-M2 4",
    "OBJECT_ID": "2024-039A",
    "EPOCH": "2026-07-08T23:44:48.067008",
    "MEAN_MOTION": 14.22431722,
    "ECCENTRICITY": 0.00081896,
    "INCLINATION": 98.7021,
    "RA_OF_ASC_NODE": 149.0147,
    "ARG_OF_PERICENTER": 104.1617,
    "MEAN_ANOMALY": 256.0471,
    "EPHEMERIS_TYPE": 0,
    "CLASSIFICATION_TYPE": "U",
    "NORAD_CAT_ID": 59051,
    "ELEMENT_SET_NO": 999,
    "REV_AT_EPOCH": 12236,
    "BSTAR": 0.000017074602,
    "MEAN_MOTION_DOT": -6e-8,
    "MEAN_MOTION_DDOT": 0
   }
  },
  {
   "norad": 38552,
   "name": "METEOSAT-10 (MSG-3)",
   "intl": "2012-035B",
   "group": "weather",
   "gcat": {
    "class": "C",
    "category": "MET",
    "owner": "EUMET",
    "state": "I-EUM"
   },
   "omm": {
    "OBJECT_NAME": "METEOSAT-10 (MSG-3)",
    "OBJECT_ID": "2012-035B",
    "EPOCH": "2026-07-08T20:32:38.783616",
    "MEAN_MOTION": 1.00269845,
    "ECCENTRICITY": 0.00011939,
    "INCLINATION": 4.7199,
    "RA_OF_ASC_NODE": 60.9088,
    "ARG_OF_PERICENTER": 18.9773,
    "MEAN_ANOMALY": 155.1539,
    "EPHEMERIS_TYPE": 0,
    "CLASSIFICATION_TYPE": "U",
    "NORAD_CAT_ID": 38552,
    "ELEMENT_SET_NO": 999,
    "REV_AT_EPOCH": 5107,
    "BSTAR": 0,
    "MEAN_MOTION_DOT": 3e-8,
    "MEAN_MOTION_DDOT": 0
   }
  },
  {
   "norad": 40732,
   "name": "METEOSAT-11 (MSG-4)",
   "intl": "2015-034A",
   "group": "weather",
   "gcat": {
    "class": "C",
    "category": "MET",
    "owner": "EUMET",
    "state": "I-EUM"
   },
   "omm": {
    "OBJECT_NAME": "METEOSAT-11 (MSG-4)",
    "OBJECT_ID": "2015-034A",
    "EPOCH": "2026-07-08T18:52:36.300864",
    "MEAN_MOTION": 1.00269859,
    "ECCENTRICITY": 0.00022631,
    "INCLINATION": 3.254,
    "RA_OF_ASC_NODE": 70.976,
    "ARG_OF_PERICENTER": 351.5341,
    "MEAN_ANOMALY": 156.6363,
    "EPHEMERIS_TYPE": 0,
    "CLASSIFICATION_TYPE": "U",
    "NORAD_CAT_ID": 40732,
    "ELEMENT_SET_NO": 999,
    "REV_AT_EPOCH": 743,
    "BSTAR": 0,
    "MEAN_MOTION_DOT": 7.3e-7,
    "MEAN_MOTION_DDOT": 0
   }
  }
 ]
}
